{
"type": "FeatureCollection",
"name": "cleaned_projects",
"crs": { "type": "name", "properties": { "name": "urn:ogc:def:crs:OGC:1.3:CRS84" } },
"features": [
{ "type": "Feature", "properties": { "ID": 1.0, "PROJECT_NAME": "Exporation of Gold at  Matapila area, T/A Mazengera in Lilongwe district", "POINT_TYPE": "Boundary", "POINT_ORDER": "1", "LATITUDE": -13.9988684, "LONGITUDE": 33.9196963, "PROJECT_SECTOR": "Mining", "DEVELOPERS": "Foodworths Limited", "DISTRICT": "Lilongwe", "APPROVED_MONTH": "June", "Unnamed: 10": null, "Unnamed: 11": null, "Unnamed: 12": null, "Unnamed: 13": null, "Unnamed: 14": null, "Unnamed: 15": null, "geometry_type": "Polygon", "vertex_count": 6 }, "geometry": { "type": "Polygon", "coordinates": [ [ [ 33.9372581, -14.0096955 ], [ 33.9197139, -14.0056129 ], [ 33.9196963, -13.9988684 ], [ 33.9338191, -13.9927027 ], [ 33.9371431, -13.9927442 ], [ 33.9372581, -14.0096955 ] ] ] } },
{ "type": "Feature", "properties": { "ID": 2.0, "PROJECT_NAME": "Exploration of Gold, Rutile, Monazite, Illemenite and Graphite in T/A M'bwana and T/A Mkondowe in Usisya, NkhataBay", "POINT_TYPE": "Boundary", "POINT_ORDER": "1", "LATITUDE": -11.130585, "LONGITUDE": 34.1525913, "PROJECT_SECTOR": "Mining", "DEVELOPERS": "Royal Mining Limited", "DISTRICT": "NkhataBay", "APPROVED_MONTH": "March", "Unnamed: 10": null, "Unnamed: 11": null, "Unnamed: 12": null, "Unnamed: 13": null, "Unnamed: 14": null, "Unnamed: 15": null, "geometry_type": "Polygon", "vertex_count": 4 }, "geometry": { "type": "Polygon", "coordinates": [ [ [ 34.1525913, -11.130585 ], [ 34.093109, -11.129704 ], [ 34.0931114, -11.0811461 ], [ 34.1529352, -11.0805528 ], [ 34.1525913, -11.130585 ] ] ] } },
{ "type": "Feature", "properties": { "ID": 3.0, "PROJECT_NAME": "Construction and Operation of the Area 18 filling station along the presidential dual carriage road in Lilongwe City", "POINT_TYPE": "Single_point", "POINT_ORDER": null, "LATITUDE": -13.9431204, "LONGITUDE": 33.7689256, "PROJECT_SECTOR": "Energy", "DEVELOPERS": "Palm Investments", "DISTRICT": "Lilongwe City", "APPROVED_MONTH": "March", "Unnamed: 10": null, "Unnamed: 11": null, "Unnamed: 12": null, "Unnamed: 13": null, "Unnamed: 14": null, "Unnamed: 15": null, "geometry_type": "Point", "vertex_count": 1 }, "geometry": { "type": "Point", "coordinates": [ 33.7689256, -13.9431204 ] } },
{ "type": "Feature", "properties": { "ID": 4.0, "PROJECT_NAME": "Exploration of Base Metals, Gold, Lithium, Platinum Group Metals, Lead, and Graphite in Lilongwe and Dowa", "POINT_TYPE": "Boundary", "POINT_ORDER": "1", "LATITUDE": -13.6695871, "LONGITUDE": 34.0160071, "PROJECT_SECTOR": "Mining", "DEVELOPERS": "Yankho Mining Limited", "DISTRICT": "Lilongwe & Dowa", "APPROVED_MONTH": "March", "Unnamed: 10": null, "Unnamed: 11": null, "Unnamed: 12": null, "Unnamed: 13": null, "Unnamed: 14": null, "Unnamed: 15": null, "geometry_type": "Polygon", "vertex_count": 5 }, "geometry": { "type": "Polygon", "coordinates": [ [ [ 34.0160071, -13.6695871 ], [ 34.016229, -13.6782294 ], [ 34.0354857, -13.6839449 ], [ 34.0497251, -13.6839935 ], [ 34.0501186, -13.6684686 ], [ 34.0160071, -13.6695871 ] ] ] } },
{ "type": "Feature", "properties": { "ID": 5.0, "PROJECT_NAME": "Construction and Operation of Mkukula Service Station at Mtengowanthenga in Dowa ", "POINT_TYPE": "Single_point", "POINT_ORDER": null, "LATITUDE": -14.0755656, "LONGITUDE": 33.8297129, "PROJECT_SECTOR": "Energy", "DEVELOPERS": "Absalom Brian Ndhlovu", "DISTRICT": "Lilongwe", "APPROVED_MONTH": "July", "Unnamed: 10": null, "Unnamed: 11": null, "Unnamed: 12": null, "Unnamed: 13": null, "Unnamed: 14": null, "Unnamed: 15": null, "geometry_type": "Point", "vertex_count": 1 }, "geometry": { "type": "Point", "coordinates": [ 33.8297129, -14.0755656 ] } },
{ "type": "Feature", "properties": { "ID": 6.0, "PROJECT_NAME": "Mineral Exploration of Niobium, Graphite and Base Metals in Mzimba and Kasungu Districts", "POINT_TYPE": "Boundary", "POINT_ORDER": "1", "LATITUDE": -12.0671445, "LONGITUDE": 33.5114574, "PROJECT_SECTOR": "Mining", "DEVELOPERS": "Opooman Limited", "DISTRICT": "Mzimba & Kasungu", "APPROVED_MONTH": "June", "Unnamed: 10": null, "Unnamed: 11": null, "Unnamed: 12": null, "Unnamed: 13": null, "Unnamed: 14": null, "Unnamed: 15": null, "geometry_type": "Polygon", "vertex_count": 10 }, "geometry": { "type": "Polygon", "coordinates": [ [ [ 33.5114574, -12.0671445 ], [ 33.4973569, -11.9998502 ], [ 33.8886, -11.9051 ], [ 33.6205605, -12.1380384 ], [ 33.5902596, -12.1234397 ], [ 33.5868595, -12.0761437 ], [ 33.5911596, -12.0759437 ], [ 33.5866595, -12.0503458 ], [ 33.5618588, -12.0411466 ], [ 33.5200576, -12.0538456 ], [ 33.5114574, -12.0671445 ] ] ] } },
{ "type": "Feature", "properties": { "ID": 7.0, "PROJECT_NAME": "B11 Recreation Building, Area 32 in Lilongwe", "POINT_TYPE": "Single_point", "POINT_ORDER": null, "LATITUDE": -13.9506205, "LONGITUDE": 33.7749072, "PROJECT_SECTOR": "Construction", "DEVELOPERS": "Association of Jehovah's witness of Malawi", "DISTRICT": "Lilongwe", "APPROVED_MONTH": "July", "Unnamed: 10": null, "Unnamed: 11": null, "Unnamed: 12": null, "Unnamed: 13": null, "Unnamed: 14": null, "Unnamed: 15": null, "geometry_type": "Point", "vertex_count": 1 }, "geometry": { "type": "Point", "coordinates": [ 33.7749072, -13.9506205 ] } },
{ "type": "Feature", "properties": { "ID": 8.0, "PROJECT_NAME": "Exploration of Titanium Minerals, Zircon, Graphite, Rare Earth Minerals and Kyanite at Kampini Area under TA Chingala Lilongwe", "POINT_TYPE": "Boundary", "POINT_ORDER": "1", "LATITUDE": -14.2143557, "LONGITUDE": 33.6267987, "PROJECT_SECTOR": "Mining", "DEVELOPERS": "Ice Breaker Limited", "DISTRICT": "Lilongwe", "APPROVED_MONTH": "July", "Unnamed: 10": null, "Unnamed: 11": null, "Unnamed: 12": null, "Unnamed: 13": null, "Unnamed: 14": null, "Unnamed: 15": null, "geometry_type": "Polygon", "vertex_count": 11 }, "geometry": { "type": "Polygon", "coordinates": [ [ [ 33.6267987, -14.2143557 ], [ 33.6547541, -14.2667203 ], [ 33.7550042, -14.3062047 ], [ 33.7959969, -14.362125 ], [ 33.8927168, -14.4304899 ], [ 33.8874237, -14.4992191 ], [ 34.0076209, -14.4029058 ], [ 33.925784, -14.3508047 ], [ 33.7622207, -14.2465105 ], [ 33.7194335, -14.1996291 ], [ 33.6267987, -14.2143557 ] ] ] } },
{ "type": "Feature", "properties": { "ID": 9.0, "PROJECT_NAME": "Exploration of Coal at TA Kyungu Area in Karonga District", "POINT_TYPE": "Boundary", "POINT_ORDER": "1", "LATITUDE": -10.0865118, "LONGITUDE": 33.7666916, "PROJECT_SECTOR": "Mining", "DEVELOPERS": "Amknown Dangote Limited", "DISTRICT": "Karonga", "APPROVED_MONTH": "March", "Unnamed: 10": null, "Unnamed: 11": null, "Unnamed: 12": null, "Unnamed: 13": null, "Unnamed: 14": null, "Unnamed: 15": null, "geometry_type": "Polygon", "vertex_count": 10 }, "geometry": { "type": "Polygon", "coordinates": [ [ [ 33.7666916, -10.0865118 ], [ 33.8509851, -10.0886294 ], [ 33.8455441, -10.1819097 ], [ 33.8137491, -10.1819904 ], [ 33.8093265, -10.1730572 ], [ 33.7701042, -10.1666403 ], [ 33.7657237, -10.1594518 ], [ 33.7526971, -10.1630633 ], [ 33.7527036, -10.1228457 ], [ 33.7673793, -10.1225133 ], [ 33.7666916, -10.0865118 ] ] ] } },
{ "type": "Feature", "properties": { "ID": 10.0, "PROJECT_NAME": "Construction and Operation of TA Service Station at Chikalusa Village TA Chadza in Lilongwe", "POINT_TYPE": "Single_point", "POINT_ORDER": null, "LATITUDE": -14.0894444, "LONGITUDE": 33.8741667, "PROJECT_SECTOR": "Energy", "DEVELOPERS": "Mr Anold Makoni", "DISTRICT": "Lilongwe", "APPROVED_MONTH": "March", "Unnamed: 10": "*", "Unnamed: 11": null, "Unnamed: 12": null, "Unnamed: 13": null, "Unnamed: 14": null, "Unnamed: 15": null, "geometry_type": "Point", "vertex_count": 1 }, "geometry": { "type": "Point", "coordinates": [ 33.8741667, -14.0894444 ] } },
{ "type": "Feature", "properties": { "ID": 11.0, "PROJECT_NAME": "Diesel Storage Facility at Chiendausiku Campsite in Balaka", "POINT_TYPE": "Single_point", "POINT_ORDER": null, "LATITUDE": -15.0086528, "LONGITUDE": 35.0695599, "PROJECT_SECTOR": "Energy", "DEVELOPERS": "Jiangxi Engineering (Group) Corporation Limited", "DISTRICT": "Balaka", "APPROVED_MONTH": "July", "Unnamed: 10": "*", "Unnamed: 11": null, "Unnamed: 12": null, "Unnamed: 13": null, "Unnamed: 14": null, "Unnamed: 15": null, "geometry_type": "Point", "vertex_count": 1 }, "geometry": { "type": "Point", "coordinates": [ 35.0695599, -15.0086528 ] } },
{ "type": "Feature", "properties": { "ID": 12.0, "PROJECT_NAME": "Exploration Of Lithium and Pegmatite in TA Msamala in Balaka District", "POINT_TYPE": "Boundary", "POINT_ORDER": "1", "LATITUDE": -15.0997459, "LONGITUDE": 35.03359, "PROJECT_SECTOR": "Mining", "DEVELOPERS": "AVRO International Limited, Minach Trading", "DISTRICT": "Balaka", "APPROVED_MONTH": "June", "Unnamed: 10": null, "Unnamed: 11": null, "Unnamed: 12": null, "Unnamed: 13": null, "Unnamed: 14": null, "Unnamed: 15": null, "geometry_type": "Polygon", "vertex_count": 4 }, "geometry": { "type": "Polygon", "coordinates": [ [ [ 35.03359, -15.0997459 ], [ 35.0461752, -15.1124818 ], [ 35.0145734, -15.1543053 ], [ 34.9991585, -15.1345715 ], [ 35.03359, -15.0997459 ] ] ] } },
{ "type": "Feature", "properties": { "ID": 13.0, "PROJECT_NAME": "Exploration for Base Metals, Lead and Graphite in Lilongwe District", "POINT_TYPE": "Boundary", "POINT_ORDER": "1", "LATITUDE": -13.6769451, "LONGITUDE": 33.9939916, "PROJECT_SECTOR": "Mining", "DEVELOPERS": "Africa Drilling Mining Limited", "DISTRICT": "Lilongwe", "APPROVED_MONTH": "July", "Unnamed: 10": null, "Unnamed: 11": null, "Unnamed: 12": null, "Unnamed: 13": null, "Unnamed: 14": null, "Unnamed: 15": null, "geometry_type": "Polygon", "vertex_count": 6 }, "geometry": { "type": "Polygon", "coordinates": [ [ [ 33.9939916, -13.6769451 ], [ 34.0928349, -13.7039586 ], [ 34.0925493, -13.7041949 ], [ 33.9991416, -13.7316405 ], [ 33.9909421, -13.7896442 ], [ 33.98528, -13.7894409 ], [ 33.9939916, -13.6769451 ] ] ] } },
{ "type": "Feature", "properties": { "ID": 14.0, "PROJECT_NAME": "Construction and Operation of Dzumila Filling Station Along the M1 Road in Chikwawa District ", "POINT_TYPE": "Single_point", "POINT_ORDER": " ", "LATITUDE": -16.1317222, "LONGITUDE": 34.8425833, "PROJECT_SECTOR": "Energy", "DEVELOPERS": "Mbesa Kodo", "DISTRICT": "Chikwawa", "APPROVED_MONTH": "July", "Unnamed: 10": null, "Unnamed: 11": null, "Unnamed: 12": null, "Unnamed: 13": null, "Unnamed: 14": null, "Unnamed: 15": null, "geometry_type": "Point", "vertex_count": 1 }, "geometry": { "type": "Point", "coordinates": [ 34.8425833, -16.1317222 ] } },
{ "type": "Feature", "properties": { "ID": 16.0, "PROJECT_NAME": "Construction of Marshall Lodge, Chapima Heights, Blantyre City", "POINT_TYPE": "Singe_point", "POINT_ORDER": null, "LATITUDE": -15.7578574, "LONGITUDE": 35.0139124, "PROJECT_SECTOR": "Construction", "DEVELOPERS": "Chimwemwe & Elizabeth Mafeni", "DISTRICT": "Blantyre", "APPROVED_MONTH": "May", "Unnamed: 10": null, "Unnamed: 11": null, "Unnamed: 12": null, "Unnamed: 13": null, "Unnamed: 14": null, "Unnamed: 15": null, "geometry_type": "Point", "vertex_count": 1 }, "geometry": { "type": "Point", "coordinates": [ 35.0139124, -15.7578574 ] } },
{ "type": "Feature", "properties": { "ID": 17.0, "PROJECT_NAME": "Exploration of Heavy Mineral Sands at Lake Chilwa and Chisi Island in Zomba District", "POINT_TYPE": "Singe_point", "POINT_ORDER": null, "LATITUDE": -15.25, "LONGITUDE": 35.75, "PROJECT_SECTOR": "Mining", "DEVELOPERS": "Chilwa Minerals Africa Ltd", "DISTRICT": "Zomba", "APPROVED_MONTH": "March", "Unnamed: 10": null, "Unnamed: 11": null, "Unnamed: 12": null, "Unnamed: 13": null, "Unnamed: 14": null, "Unnamed: 15": null, "geometry_type": "Point", "vertex_count": 1 }, "geometry": { "type": "Point", "coordinates": [ 35.75, -15.25 ] } },
{ "type": "Feature", "properties": { "ID": 18.0, "PROJECT_NAME": "Construction and Operation of Bwengu Mank Servive Station at Bwengu, Mzimba District", "POINT_TYPE": "Singe_point", "POINT_ORDER": null, "LATITUDE": -11.0546194, "LONGITUDE": 35.9220889, "PROJECT_SECTOR": "Energy", "DEVELOPERS": "Mank Investments", "DISTRICT": "Mzimba", "APPROVED_MONTH": "June", "Unnamed: 10": null, "Unnamed: 11": null, "Unnamed: 12": null, "Unnamed: 13": null, "Unnamed: 14": null, "Unnamed: 15": null, "geometry_type": "Point", "vertex_count": 1 }, "geometry": { "type": "Point", "coordinates": [ 35.9220889, -11.0546194 ] } },
{ "type": "Feature", "properties": { "ID": 19.0, "PROJECT_NAME": "Exploration of Graphite and Galena at TA Chimutu Area in Lilongwe District", "POINT_TYPE": "Boundary", "POINT_ORDER": "1", "LATITUDE": -13.749506, "LONGITUDE": 33.8879841, "PROJECT_SECTOR": "Mining", "DEVELOPERS": "Star Mining Ltd", "DISTRICT": "Lilongwe", "APPROVED_MONTH": "June", "Unnamed: 10": null, "Unnamed: 11": null, "Unnamed: 12": null, "Unnamed: 13": null, "Unnamed: 14": null, "Unnamed: 15": null, "geometry_type": "Polygon", "vertex_count": 4 }, "geometry": { "type": "Polygon", "coordinates": [ [ [ 33.8879841, -13.749506 ], [ 33.9249799, -13.74937 ], [ 33.9254255, -13.862382 ], [ 33.8884119, -13.8625192 ], [ 33.8879841, -13.749506 ] ] ] } },
{ "type": "Feature", "properties": { "ID": 20.0, "PROJECT_NAME": "Operation of Mtambo Borrow Pit at Mtambo Village, TA Kabudula in Lilongwe District", "POINT_TYPE": "Boundary", "POINT_ORDER": "1", "LATITUDE": -13.9018114, "LONGITUDE": 33.6593855, "PROJECT_SECTOR": "Construction", "DEVELOPERS": "PLEM Construction Ltd", "DISTRICT": "Lilongwe", "APPROVED_MONTH": "March", "Unnamed: 10": null, "Unnamed: 11": null, "Unnamed: 12": null, "Unnamed: 13": null, "Unnamed: 14": null, "Unnamed: 15": null, "geometry_type": "Polygon", "vertex_count": 8 }, "geometry": { "type": "Polygon", "coordinates": [ [ [ 33.6581848, -13.9032882 ], [ 33.6578984, -13.9028003 ], [ 33.6593855, -13.9018114 ], [ 33.6596476, -13.9018355 ], [ 33.6599351, -13.9030106 ], [ 33.6592964, -13.9032056 ], [ 33.6581848, -13.9032882 ] ] ] } },
{ "type": "Feature", "properties": { "ID": 21.0, "PROJECT_NAME": "Exploration of Base Metals, Lead, Lithium and Manganese in TA Chimutu in Lilongwe and TA Chiwere in Dowa District", "POINT_TYPE": "Boundary", "POINT_ORDER": "1", "LATITUDE": -13.8522321, "LONGITUDE": 33.9781276, "PROJECT_SECTOR": "Mining", "DEVELOPERS": "Truestone Mineral Processing Ltd", "DISTRICT": "Lilongwe & Dowa", "APPROVED_MONTH": "March", "Unnamed: 10": null, "Unnamed: 11": null, "Unnamed: 12": null, "Unnamed: 13": null, "Unnamed: 14": null, "Unnamed: 15": null, "geometry_type": "Polygon", "vertex_count": 8 }, "geometry": { "type": "Polygon", "coordinates": [ [ [ 33.9781276, -13.8522321 ], [ 33.9779162, -13.8016036 ], [ 33.9806915, -13.8015925 ], [ 33.9806537, -13.7925517 ], [ 33.9778786, -13.7925627 ], [ 33.8821041, -13.6609228 ], [ 34.0002016, -13.6026121 ], [ 33.9807184, -13.8522217 ], [ 33.9781276, -13.8522321 ] ] ] } },
{ "type": "Feature", "properties": { "ID": 22.0, "PROJECT_NAME": "Waste Management Plan for Cookstove Manufacturing & Distribution at Njuli in Chiradzulu District", "POINT_TYPE": "Boundary", "POINT_ORDER": null, "LATITUDE": -15.677855, "LONGITUDE": 35.135742, "PROJECT_SECTOR": "Energy", "DEVELOPERS": "Burn Manufacturing Ltd", "DISTRICT": "Chiradzulu", "APPROVED_MONTH": "July", "Unnamed: 10": null, "Unnamed: 11": null, "Unnamed: 12": null, "Unnamed: 13": null, "Unnamed: 14": null, "Unnamed: 15": null, "geometry_type": "Point", "vertex_count": 1 }, "geometry": { "type": "Point", "coordinates": [ 35.135742, -15.677855 ] } },
{ "type": "Feature", "properties": { "ID": 23.0, "PROJECT_NAME": "Exploration of Base Metals, Galena, Lithium, Columbite, Zinc, Nickel and Manganese in TA Kasakula in Ntchisi District", "POINT_TYPE": "Boundary", "POINT_ORDER": "1", "LATITUDE": -13.4658301, "LONGITUDE": 33.9699771, "PROJECT_SECTOR": "Mining", "DEVELOPERS": "Truestone Mineral Processing Ltd", "DISTRICT": "Ntchisi", "APPROVED_MONTH": "March", "Unnamed: 10": null, "Unnamed: 11": null, "Unnamed: 12": null, "Unnamed: 13": null, "Unnamed: 14": null, "Unnamed: 15": null, "geometry_type": "Polygon", "vertex_count": 8 }, "geometry": { "type": "Polygon", "coordinates": [ [ [ 33.9699771, -13.4658301 ], [ 34.0007048, -13.4731054 ], [ 34.0010404, -13.4960233 ], [ 33.9834804, -13.5103868 ], [ 33.9696041, -13.5062006 ], [ 33.96127, -13.5061965 ], [ 33.9615274, -13.4850752 ], [ 33.9700084, -13.4850607 ], [ 33.9699771, -13.4658301 ] ] ] } },
{ "type": "Feature", "properties": { "ID": 24.0, "PROJECT_NAME": "Exploration of Niobium, Tantalum, Titamium, Graphite, Zircon, Gold, Monazite and Base Metals at TA Simlemba Area in Kasungu District", "POINT_TYPE": "Boundary", "POINT_ORDER": "1", "LATITUDE": -12.7314077, "LONGITUDE": 33.5472682, "PROJECT_SECTOR": "Mining", "DEVELOPERS": "Dew Mining Limited", "DISTRICT": "Kasungu", "APPROVED_MONTH": "June", "Unnamed: 10": null, "Unnamed: 11": null, "Unnamed: 12": null, "Unnamed: 13": null, "Unnamed: 14": null, "Unnamed: 15": null, "geometry_type": "Polygon", "vertex_count": 6 }, "geometry": { "type": "Polygon", "coordinates": [ [ [ 33.5472682, -12.7314077 ], [ 33.6377306, -12.7158333 ], [ 33.6407334, -12.7598715 ], [ 33.5840926, -12.7704196 ], [ 33.5823347, -12.7631443 ], [ 33.5522402, -12.7644297 ], [ 33.5472682, -12.7314077 ] ] ] } },
{ "type": "Feature", "properties": { "ID": 25.0, "PROJECT_NAME": "Exploration for Graphite, Lead, Platinum Group of Metals, Base Elements within Lilongwe and Dowa District", "POINT_TYPE": "Boundary", "POINT_ORDER": "1", "LATITUDE": -13.6947017, "LONGITUDE": 33.4995556, "PROJECT_SECTOR": "Mining", "DEVELOPERS": "East Africa Mining Limited", "DISTRICT": "Lilongwe & Dowa", "APPROVED_MONTH": "July", "Unnamed: 10": null, "Unnamed: 11": null, "Unnamed: 12": null, "Unnamed: 13": null, "Unnamed: 14": null, "Unnamed: 15": null, "geometry_type": "Polygon", "vertex_count": 7 }, "geometry": { "type": "Polygon", "coordinates": [ [ [ 33.4995556, -13.6947017 ], [ 33.5366879, -13.7854221 ], [ 33.4789239, -14.0287745 ], [ 33.4672306, -13.9982996 ], [ 33.4630999, -13.9839854 ], [ 33.4630999, -13.9839854 ], [ 33.4908372, -13.7491243 ], [ 33.4995556, -13.6947017 ] ] ] } },
{ "type": "Feature", "properties": { "ID": 26.0, "PROJECT_NAME": "Exploration for Base Metals, Lead and Graphite Within TA Chiwere and TA Mkukula in Dowa District and a Small Part of TA Chimutu in Lilongwe District", "POINT_TYPE": "Boundary", "POINT_ORDER": "1", "LATITUDE": -13.904246, "LONGITUDE": 33.4073124, "PROJECT_SECTOR": "Mining", "DEVELOPERS": "Africa Drilling Mining Limited", "DISTRICT": "Lilongwe & Dowa", "APPROVED_MONTH": "July", "Unnamed: 10": null, "Unnamed: 11": null, "Unnamed: 12": null, "Unnamed: 13": null, "Unnamed: 14": null, "Unnamed: 15": null, "geometry_type": "Polygon", "vertex_count": 4 }, "geometry": { "type": "Polygon", "coordinates": [ [ [ 33.4441204, -13.9510816 ], [ 33.4162471, -13.9367544 ], [ 33.4076786, -13.9230976 ], [ 33.4073124, -13.904246 ], [ 33.4441204, -13.9510816 ] ] ] } },
{ "type": "Feature", "properties": { "ID": 27.0, "PROJECT_NAME": "Exploration of Aluminium, Copper, Graphite, Lead, Nickel, Niobium, Platinum, Rare Earth Elements, Rutile, Silver, Titanium and Zinc in TA Chiseka and Kalolo in Lilongwe District", "POINT_TYPE": "Boundary", "POINT_ORDER": "1", "LATITUDE": -14.1792971, "LONGITUDE": 33.5896443, "PROJECT_SECTOR": "Mining", "DEVELOPERS": "Alphastone Mining Cooperation Limited", "DISTRICT": "Lilongwe", "APPROVED_MONTH": "March", "Unnamed: 10": null, "Unnamed: 11": null, "Unnamed: 12": null, "Unnamed: 13": null, "Unnamed: 14": null, "Unnamed: 15": null, "geometry_type": "Polygon", "vertex_count": 5 }, "geometry": { "type": "Polygon", "coordinates": [ [ [ 33.5896443, -14.1792971 ], [ 33.4116665, -14.0885285 ], [ 33.5095747, -14.1194898 ], [ 33.5373338, -14.1284891 ], [ 33.5913154, -14.1375034 ], [ 33.5896443, -14.1792971 ] ] ] } },
{ "type": "Feature", "properties": { "ID": 28.0, "PROJECT_NAME": "Exploration of Uranium at TA Chapanaga in Chikwawa District", "POINT_TYPE": "Boundary", "POINT_ORDER": "1", "LATITUDE": -14.9460169, "LONGITUDE": 35.3999157, "PROJECT_SECTOR": "Mining", "DEVELOPERS": "Avro International Limited, Minarch Trading", "DISTRICT": "Chikwawa", "APPROVED_MONTH": "March", "Unnamed: 10": null, "Unnamed: 11": null, "Unnamed: 12": null, "Unnamed: 13": null, "Unnamed: 14": null, "Unnamed: 15": null, "geometry_type": "Polygon", "vertex_count": 4 }, "geometry": { "type": "Polygon", "coordinates": [ [ [ 35.3999157, -14.9460169 ], [ 35.5305524, -14.9549682 ], [ 35.4714996, -14.9960963 ], [ 35.4062681, -14.9781844 ], [ 35.3999157, -14.9460169 ] ] ] } },
{ "type": "Feature", "properties": { "ID": 29.0, "PROJECT_NAME": "Exploration  of Uranium and Coal in Karonga and Chitipa Districts TA Mwakaboko & Misuku", "POINT_TYPE": "Boundary", "POINT_ORDER": "1", "LATITUDE": -9.6277526, "LONGITUDE": 33.6438986, "PROJECT_SECTOR": "Mining", "DEVELOPERS": "Avro International Limited, Minarch Trading", "DISTRICT": "Karonga & Chitipa", "APPROVED_MONTH": "March", "Unnamed: 10": null, "Unnamed: 11": null, "Unnamed: 12": null, "Unnamed: 13": null, "Unnamed: 14": null, "Unnamed: 15": null, "geometry_type": "Polygon", "vertex_count": 4 }, "geometry": { "type": "Polygon", "coordinates": [ [ [ 33.6438986, -9.6277526 ], [ 33.6608185, -9.6396228 ], [ 33.6566835, -9.6504566 ], [ 33.6497473, -9.6503613 ], [ 33.6438986, -9.6277526 ] ] ] } },
{ "type": "Feature", "properties": { "ID": 31.0, "PROJECT_NAME": "Exploration of Rare Earth Elements at TA Malemia and Kumutumanji in Zomba District", "POINT_TYPE": "Boundary", "POINT_ORDER": "1", "LATITUDE": -15.2386066, "LONGITUDE": 35.384045, "PROJECT_SECTOR": "Mining", "DEVELOPERS": "Baze International Limited, Minarch Trading", "DISTRICT": "Zomba", "APPROVED_MONTH": "March", "Unnamed: 10": null, "Unnamed: 11": null, "Unnamed: 12": null, "Unnamed: 13": null, "Unnamed: 14": null, "Unnamed: 15": null, "geometry_type": "Polygon", "vertex_count": 4 }, "geometry": { "type": "Polygon", "coordinates": [ [ [ 35.384045, -15.2386066 ], [ 35.4533907, -15.2687549 ], [ 35.4559671, -15.2750413 ], [ 35.3922783, -15.2828317 ], [ 35.384045, -15.2386066 ] ] ] } },
{ "type": "Feature", "properties": { "ID": 32.0, "PROJECT_NAME": "Exploration of Uranium and Rare Earth Elements at TA Kameme in Chitipa District", "POINT_TYPE": "Boundary", "POINT_ORDER": "1", "LATITUDE": -9.6277526, "LONGITUDE": 33.6438986, "PROJECT_SECTOR": "Mining", "DEVELOPERS": "Avro International Limited, Minarch Trading", "DISTRICT": "Chitipa", "APPROVED_MONTH": "March", "Unnamed: 10": null, "Unnamed: 11": null, "Unnamed: 12": null, "Unnamed: 13": null, "Unnamed: 14": null, "Unnamed: 15": null, "geometry_type": "Polygon", "vertex_count": 4 }, "geometry": { "type": "Polygon", "coordinates": [ [ [ 33.6438986, -9.6277526 ], [ 33.6532678, -9.6231767 ], [ 33.6566835, -9.6504566 ], [ 33.6497473, -9.6503613 ], [ 33.6438986, -9.6277526 ] ] ] } },
{ "type": "Feature", "properties": { "ID": 33.0, "PROJECT_NAME": "Exploration of Gold, Lithium, Quartz, Tourmaline, Base Metals, Mica, Rare Earth Elements in Nkhotakota and Mzimba District", "POINT_TYPE": "Boundary", "POINT_ORDER": "1", "LATITUDE": -12.5762598, "LONGITUDE": 34.0400978, "PROJECT_SECTOR": "Mining", "DEVELOPERS": "Cutting Edge Limited", "DISTRICT": "Nkhotakota & Mzimba", "APPROVED_MONTH": "March", "Unnamed: 10": null, "Unnamed: 11": null, "Unnamed: 12": null, "Unnamed: 13": null, "Unnamed: 14": null, "Unnamed: 15": null, "geometry_type": "Polygon", "vertex_count": 4 }, "geometry": { "type": "Polygon", "coordinates": [ [ [ 34.0400978, -12.5762598 ], [ 34.0447261, -12.5804009 ], [ 34.0555712, -12.5762897 ], [ 34.0587063, -12.5731399 ], [ 34.0400978, -12.5762598 ] ] ] } }
]
}
